1 51864U 22022N   22257.58334491  .00049574  00000-0  31143-2 0  9990
2 51864  53.2170 319.8274 0001773  54.3325 341.0221 15.08802198  1307
1 51864U 22022N   22257.91667824  .00004438  00000-0  29682-3 0  9992
2 51864  53.2171 318.3294 0001668  57.5149 349.4132 15.08833985  1307
1 51864U 22022N   22257.91667824  .00004438  00000-0  29682-3 0  9992
2 51864  53.2171 318.3294 0001668  57.5149 349.4132 15.08833985 31164
1 51864U 22022N   22258.58334491  .00006708  00000-0  43903-3 0  9991
2 51864  53.2173 315.3380 0001797  52.0725  18.0592 15.08847908  1304
1 51864U 22022N   22258.66667824 -.00010432  00000-0 -63800-3 0  9998
2 51864  53.2170 314.9637 0001783  50.7618 112.2705 15.08855232  1304
1 51864U 22022N   22259.16662154  .00001839  00000-0  13359-3 0  9998
2 51864  53.2173 312.7187 0001758  57.8231 302.2932 15.08842293 31358
1 51864U 22022N   22259.43157967  .00002152  00000-0  15322-3 0  9990
2 51864  53.2173 311.5291 0001739  57.4648 302.6512 15.08844392 31392
1 51864U 22022N   22259.82902249  .00000686  00000-0  61210-4 0  9992
2 51864  53.2173 309.7448 0001715  57.0550 303.0607 15.08837248 31456
1 51864U 22022N   22260.16023678 -.00001611  00000-0 -83197-4 0  9990
2 51864  53.2180 308.2580 0001647  58.2118 301.9035 15.08823160 31508
1 51864U 22022N   22260.42519743 -.00001375  00000-0 -68345-4 0  9997
2 51864  53.2180 307.0687 0001661  56.8786 303.2365 15.08824779 31546
1 51864U 22022N   22261.08759736 -.00000118  00000-0  10691-4 0  9992
2 51864  53.2178 304.0947 0001630  58.5125 301.6026 15.08827195 31643
1 51864U 22022N   22261.41879645  .00000561  00000-0  53370-4 0  9993
2 51864  53.2178 302.6081 0001664  57.2838 302.8314 15.08831822 31690
1 51864U 22022N   22262.08118909 -.00000824  00000-0 -33678-4 0  9999
2 51864  53.2178 299.6345 0001800  56.5732 303.5432 15.08851138 31797
1 51864U 22022N   22262.47863521  .00006183  00000-0  40614-3 0  9998
2 51864  53.2170 297.8505 0001756  57.4094 302.7068 15.08845578 31852
1 51864U 22022N   22262.54487475  .00006690  00000-0  43792-3 0  9999
2 51864  53.2170 297.5531 0001758  57.5618 302.5544 15.08847799 31868
1 51864U 22022N   22262.87607036  .00007704  00000-0  50140-3 0  9994
2 51864  53.2168 296.0664 0001738  58.5192 301.5970 15.08857028 31916
1 51864U 22022N   22263.47223048  .00002061  00000-0  14753-3 0  9999
2 51864  53.2165 293.3902 0001723  55.7520 304.3635 15.08847946 32004
1 51864U 22022N   22263.47223048  .00002061  00000-0  14753-3 0  9999
2 51864  53.2165 293.3902 0001723  55.7520 304.3635 15.08847946 32004
1 51864U 22022N   22263.86966768  .00004628  00000-0  30856-3 0  9998
2 51864  53.2164 291.6060 0001711  56.0797 304.0357 15.08852886 32069
